NORAD_CAT_ID,OBJECT_NAME,OBJECT_TYPE,EPOCH,MEAN_MOTION,ECCENTRICITY,INCLINATION,RA_OF_ASC_NODE,ARG_OF_PERICENTER,MEAN_ANOMALY,BSTAR,MEAN_MOTION_DOT,MEAN_MOTION_DDOT,TLE_LINE0,TLE_LINE1,TLE_LINE2,SEMIMAJOR_AXIS,PERIOD,APOGEE,PERIGEE,DECAYED
51750.0,STARLINK-3505,PAYLOAD,2023-10-13 18:08:32,15.08846766,0.0001706,53.2156,290.3276,92.879,267.2397,0.00024937,3.684e-05,0.0,0 STARLINK-3505,1 51750U 22016AN  23286.75593578  .00003684  00000-0  24937-3 0  9998,2 51750  53.2156 290.3276 0001706  92.8790 267.2397 15.08846766 91164,6917.86,95.437,540.905,538.545,0.0
51750.0,STARLINK-3505,PAYLOAD,2023-10-14 03:40:51,15.08848149,0.0001549,53.2164,288.5419,107.0551,253.0611,0.00025087,3.708e-05,0.0,0 STARLINK-3505,1 51750U 22016AN  23287.15337311  .00003708  00000-0  25087-3 0  9998,2 51750  53.2164 288.5419 0001549 107.0551 253.0611 15.08848149 92340,6917.855,95.437,540.792,538.649,0.0
51750.0,STARLINK-3505,PAYLOAD,2023-10-14 06:51:37,15.08854615,0.000166,53.2155,287.9498,96.4714,263.6467,0.00029079,4.345e-05,0.0,0 STARLINK-3505,1 51750U 22016AN  23287.28585073  .00004345  00000-0  29079-3 0  9995,2 51750  53.2155 287.9498 0001660  96.4714 263.6467 15.08854615 91245,6917.836,95.437,540.849,538.552,0.0
51750.0,STARLINK-3505,PAYLOAD,2023-10-15 05:07:02,15.08831001,0.0001718,53.2163,283.7842,110.1138,250.0039,-6.7554e-05,-1.363e-05,0.0,0 STARLINK-3505,1 51750U 22016AN  23288.21322265 -.00001363  00000-0 -67554-4 0  9991,2 51750  53.2163 283.7842 0001718 110.1138 250.0039 15.08831001 92508,6917.908,95.438,540.961,538.584,0.0
51750.0,STARLINK-3505,PAYLOAD,2023-10-15 06:42:25,15.08830096,0.0001466,53.2163,283.4871,90.6813,269.4347,-4.5801e-05,-1.017e-05,0.0,0 STARLINK-3505,1 51750U 22016AN  23288.27946451 -.00001017  00000-0 -45801-4 0  9993,2 51750  53.2163 283.4871 0001466  90.6813 269.4347 15.08830096 91394,6917.911,95.438,540.79,538.761,0.0
51750.0,STARLINK-3505,PAYLOAD,2023-10-15 16:14:44,15.08834457,0.0001364,53.216,281.7041,90.6982,269.4166,5.6007e-05,6.03e-06,0.0,0 STARLINK-3505,1 51750U 22016AN  23288.67690498  .00000603  00000-0  56007-4 0  9992,2 51750  53.2160 281.7041 0001364  90.6982 269.4166 15.08834457 91456,6917.897,95.438,540.706,538.819,0.0
51750.0,STARLINK-3505,PAYLOAD,2023-10-16 06:33:12,15.08855092,0.0001292,53.216,279.0294,95.634,264.4799,0.00065301,0.00010124,0.0,0 STARLINK-3505,1 51750U 22016AN  23289.27306085  .00010124  00000-0  65301-3 0  9990,2 51750  53.2160 279.0294 0001292  95.6340 264.4799 15.08855092 92668,6917.834,95.437,540.593,538.805,0.0
51750.0,STARLINK-3505,PAYLOAD,2023-10-18 03:04:00,15.08837226,0.0001309,53.2173,270.7047,97.3388,262.7753,2.0698e-05,4.2e-07,0.0,0 STARLINK-3505,1 51750U 22016AN  23291.12778342  .00000042  00000-0  20698-4 0  9995,2 51750  53.2173 270.7047 0001309  97.3388 262.7753 15.08837226 91823,6917.889,95.438,540.659,538.848,0.0
51750.0,STARLINK-3505,PAYLOAD,2023-10-18 04:39:23,15.0884213,0.0001643,53.217,270.4055,91.8331,268.2849,2.8535e-05,1.66e-06,0.0,0 STARLINK-3505,1 51750U 22016AN  23291.19402314  .00000166  00000-0  28535-4 0  9990,2 51750  53.2170 270.4055 0001643  91.8331 268.2849 15.08842130 92956,6917.874,95.437,540.875,538.602,0.0
51750.0,STARLINK-3505,PAYLOAD,2023-10-18 15:47:05,15.08844263,0.0001737,53.2174,268.3228,88.078,272.0411,0.00023124,3.394e-05,0.0,0 STARLINK-3505,1 51750U 22016AN  23291.65770344  .00003394  00000-0  23124-3 0  9996,2 51750  53.2174 268.3228 0001737  88.0780 272.0411 15.08844263 91909,6917.867,95.437,540.934,538.531,0.0
51750.0,STARLINK-3505,PAYLOAD,2023-10-19 06:05:33,15.08853981,0.000162,53.2168,265.6495,90.2773,269.8404,0.00031168,4.678e-05,0.0,0 STARLINK-3505,1 51750U 22016AN  23292.25385879  .00004678  00000-0  31168-3 0  9991,2 51750  53.2168 265.6495 0001620  90.2773 269.8404 15.08853981 93114,6917.838,95.437,540.823,538.582,0.0
51750.0,STARLINK-3505,PAYLOAD,2023-10-19 15:37:52,15.08843146,0.0001754,53.218,263.8627,84.3014,275.8178,0.00015735,2.217e-05,0.0,0 STARLINK-3505,1 51750U 22016AN  23292.65130448  .00002217  00000-0  15735-3 0  9994,2 51750  53.2180 263.8627 0001754  84.3014 275.8178 15.08843146 93178,6917.871,95.437,540.949,538.522,0.0
51750.0,STARLINK-3505,PAYLOAD,2023-10-19 21:59:25,15.0884262,0.0001767,53.2173,262.6744,84.5944,275.5249,0.00015097,2.116e-05,0.0,0 STARLINK-3505,1 51750U 22016AN  23292.91626551  .00002116  00000-0  15097-3 0  9997,2 51750  53.2173 262.6744 0001767  84.5944 275.5249 15.08842620 92097,6917.872,95.437,540.96,538.515,0.0
51750.0,STARLINK-3505,PAYLOAD,2023-10-20 07:31:43,15.08850995,0.0001679,53.217,260.8884,90.7759,269.3426,0.00020401,2.961e-05,0.0,0 STARLINK-3505,1 51750U 22016AN  23293.31369995  .00002961  00000-0  20401-3 0  9991,2 51750  53.2170 260.8884 0001679  90.7759 269.3426 15.08850995 92153,6917.847,95.437,540.873,538.55,0.0
51750.0,STARLINK-3505,PAYLOAD,2023-10-21 02:36:22,15.08834571,0.000147,53.2177,257.3209,93.0302,267.0859,4.1056e-05,3.65e-06,0.0,0 STARLINK-3505,1 51750U 22016AN  23294.10858901  .00000365  00000-0  41056-4 0  9995,2 51750  53.2177 257.3209 0001470  93.0302 267.0859 15.08834571 93395,6917.897,95.438,540.779,538.745,0.0
51750.0,STARLINK-3505,PAYLOAD,2023-10-21 04:11:45,15.08838044,0.0001567,53.2169,257.0235,98.007,262.11,4.3681e-05,4.07e-06,0.0,0 STARLINK-3505,1 51750U 22016AN  23294.17482761  .00000407  00000-0  43681-4 0  9992,2 51750  53.2169 257.0235 0001567  98.0070 262.1100 15.08838044 92287,6917.886,95.438,540.835,538.667,0.0
51750.0,STARLINK-3505,PAYLOAD,2023-10-21 21:40:59,15.0884732,0.0001476,53.2161,253.7534,90.7179,269.3982,0.00031299,4.698e-05,0.0,0 STARLINK-3505,1 51750U 22016AN  23294.90346533  .00004698  00000-0  31299-3 0  9996,2 51750  53.2161 253.7534 0001476  90.7179 269.3982 15.08847320 92398,6917.858,95.437,540.744,538.702,0.0
51750.0,STARLINK-3505,PAYLOAD,2023-10-22 04:02:31,15.0885965,0.0001547,53.2168,252.5637,101.8487,258.2678,0.00070956,0.00011029,0.0,0 STARLINK-3505,1 51750U 22016AN  23295.16842171  .00011029  00000-0  70956-3 0  9993,2 51750  53.2168 252.5637 0001547 101.8487 258.2678 15.08859650 93558,6917.82,95.436,540.756,538.615,0.0
51750.0,STARLINK-3505,PAYLOAD,2023-10-23 03:53:19,15.08838796,0.0001553,53.2168,248.103,113.7625,246.353,0.00028913,4.316e-05,0.0,0 STARLINK-3505,1 51750U 22016AN  23296.16202832  .00004316  00000-0  28913-3 0  9995,2 51750  53.2168 248.1030 0001553 113.7625 246.3530 15.08838796 93709,6917.884,95.438,540.823,538.675,0.0
51750.0,STARLINK-3505,PAYLOAD,2023-10-23 13:25:38,15.08834495,0.0001506,53.2164,246.3194,117.5966,242.5179,0.00048216,7.393e-05,0.0,0 STARLINK-3505,1 51750U 22016AN  23296.55947183  .00007393  00000-0  48216-3 0  9999,2 51750  53.2164 246.3194 0001506 117.5966 242.5179 15.08834495 92645,6917.897,95.438,540.804,538.72,0.0
51750.0,STARLINK-3505,PAYLOAD,2023-10-24 03:44:06,15.08841348,0.0001627,53.2167,243.6451,120.6583,239.457,0.0002854,4.257e-05,0.0,0 STARLINK-3505,1 51750U 22016AN  23297.15563261  .00004257  00000-0  28540-3 0  9991,2 51750  53.2167 243.6451 0001627 120.6583 239.4570 15.08841348 93857,6917.876,95.437,540.867,538.616,0.0
51750.0,STARLINK-3505,PAYLOAD,2023-10-24 13:16:25,15.08838981,0.0001462,53.2161,241.8585,111.2268,248.888,0.00038755,5.885e-05,0.0,0 STARLINK-3505,1 51750U 22016AN  23297.55307277  .00005885  00000-0  38755-3 0  9995,2 51750  53.2161 241.8585 0001462 111.2268 248.8880 15.08838981 92791,6917.884,95.438,540.76,538.737,0.0
51750.0,STARLINK-3505,PAYLOAD,2023-10-25 06:45:39,15.08848028,0.0001566,53.2164,238.5883,114.8951,245.2204,0.00029825,4.463e-05,0.0,0 STARLINK-3505,1 51750U 22016AN  23298.28171042  .00004463  00000-0  29825-3 0  9994,2 51750  53.2164 238.5883 0001566 114.8951 245.2204 15.08848028 94023,6917.856,95.437,540.804,538.638,0.0
51750.0,STARLINK-3505,PAYLOAD,2023-10-26 03:25:40,15.08847147,0.0001576,53.2167,234.7204,113.4525,246.6633,0.00011887,1.605e-05,0.0,0 STARLINK-3505,1 51750U 22016AN  23299.14283094  .00001605  00000-0  11887-3 0  9995,2 51750  53.2167 234.7204 0001576 113.4525 246.6633 15.08847147 94150,6917.859,95.437,540.814,538.633,0.0
51750.0,STARLINK-3505,PAYLOAD,2023-10-26 05:01:03,15.08848121,0.0001424,53.2163,234.4234,107.3039,252.8109,0.00012131,1.644e-05,0.0,0 STARLINK-3505,1 51750U 22016AN  23299.20907012  .00001644  00000-0  12131-3 0  9991,2 51750  53.2163 234.4234 0001424 107.3039 252.8109 15.08848121 93047,6917.856,95.437,540.706,538.735,0.0
51750.0,STARLINK-3505,PAYLOAD,2023-10-27 04:51:49,15.08863585,0.000149,53.2159,229.963,108.5964,251.519,0.00044287,6.772e-05,0.0,0 STARLINK-3505,1 51750U 22016AN  23300.20266087  .00006772  00000-0  44287-3 0  9998,2 51750  53.2159 229.9630 0001490 108.5964 251.5190 15.08863585 94312,6917.808,95.436,540.704,538.643,0.0
51750.0,STARLINK-3505,PAYLOAD,2023-10-27 12:48:46,15.08837543,0.0001958,53.2169,228.4755,92.6189,267.5027,-2.8276e-05,-7.38e-06,0.0,0 STARLINK-3505,1 51750U 22016AN  23300.53387287 -.00000738  00000-0 -28276-4 0  9999,2 51750  53.2169 228.4755 0001958  92.6189 267.5027 15.08837543 94362,6917.888,95.438,541.107,538.398,0.0
51750.0,STARLINK-3505,PAYLOAD,2023-10-27 19:10:19,15.08837084,0.0001877,53.215,227.2877,91.8629,268.2578,1.2646e-05,-8.7e-07,0.0,0 STARLINK-3505,1 51750U 22016AN  23300.79883390 -.00000087  00000-0  12646-4 0  9993,2 51750  53.2150 227.2877 0001877  91.8629 268.2578 15.08837084 93283,6917.889,95.438,541.053,538.456,0.0
51750.0,STARLINK-3505,PAYLOAD,2023-10-28 12:39:33,15.08837355,0.0001567,53.2168,224.0165,98.9603,261.1566,7.9909e-05,9.84e-06,0.0,0 STARLINK-3505,1 51750U 22016AN  23301.52747605  .00000984  00000-0  79909-4 0  9993,2 51750  53.2168 224.0165 0001567  98.9603 261.1566 15.08837355 93395,6917.888,95.438,540.838,538.669,0.0
51750.0,STARLINK-3505,PAYLOAD,2023-10-28 22:11:52,15.08848007,0.0001487,53.2162,222.2326,96.4752,263.6409,0.0001969,2.848e-05,0.0,0 STARLINK-3505,1 51750U 22016AN  23301.92491291  .00002848  00000-0  19690-3 0  9995,2 51750  53.2162 222.2326 0001487  96.4752 263.6409 15.08848007 93453,6917.856,95.437,540.75,538.692,0.0
